ONEWEB-0379             
1 49305U 21090AC  25193.85700768 -.00000170  00000+0 -49172-3 0  9999
2 49305  87.9046 357.2185 0001911  97.2805 262.8542 13.14502877182986
ONEWEB-0380             
1 49306U 21090AD  25193.52589942  .00000060  00000+0  11878-3 0  9991
2 49306  87.9213  12.4969 0001647  90.5468 269.5853 13.19725350181627
ONEWEB-0381             
1 49307U 21090AE  25193.69212805  .00000082  00000+0  16970-3 0  9993
2 49307  87.9282 342.0665 0001655 101.1567 258.9752 13.20773248185015
ONEWEB-0382             
1 49308U 21090AF  25194.13404699 -.00000024  00000+0 -91116-4 0  9992
2 49308  87.9277 341.9724 0001732 106.8631 253.2692 13.20770244186378
ONEWEB-0383             
1 49309U 21090AG  25193.85066261 -.00000093  00000+0 -28578-3 0  9997
2 49309  87.9046 357.1999 0001899  99.1987 260.9358 13.14502673183012
ONEWEB-0384             
1 49310U 21090AH  25193.67532221  .00000087  00000+0  18276-3 0  9998
2 49310  87.9282 342.0810 0001807 113.6272 246.5051 13.20787150185013
ONEWEB-0385             
1 49311U 21090AJ  25194.12614753 -.00000080  00000+0 -22883-3 0  9995
2 49311  87.9267 341.9911 0001784 100.6216 259.5119 13.20771935186367
ONEWEB-0386             
1 49312U 21090AK  25193.84049080  .00000038  00000+0  61927-4 0  9993
2 49312  87.9273 342.0178 0001888 105.7841 254.3500 13.20771781185025
